NORAD_CAT_ID,OBJECT_NAME,OBJECT_TYPE,EPOCH,MEAN_MOTION,ECCENTRICITY,INCLINATION,RA_OF_ASC_NODE,ARG_OF_PERICENTER,MEAN_ANOMALY,BSTAR,MEAN_MOTION_DOT,MEAN_MOTION_DDOT,TLE_LINE0,TLE_LINE1,TLE_LINE2,SEMIMAJOR_AXIS,PERIOD,APOGEE,PERIGEE,DECAYED
53966.0,STARLINK-4635,PAYLOAD,2022-12-03 20:00:01,15.08847799,0.0002108,53.2154,174.6489,51.4289,222.227,-0.00067897,-0.0001107999999999,0.0,0 STARLINK-4635,1 53966U 22125C   22337.83334491 -.00011080  00000-0 -67897-3 0  9995,2 53966  53.2154 174.6489 0002108  51.4289 222.2270 15.08847799  9453,6917.857,95.437,541.18,538.263,0.0
53966.0,STARLINK-4635,PAYLOAD,2022-12-03 22:00:00,15.0889328,0.0002034,53.2155,174.275,40.7857,325.8359,-0.0058585,-0.00092469,0.0,0 STARLINK-4635,1 53966U 22125C   22337.91667824 -.00092469  00000-0 -58585-2 0  9996,2 53966  53.2155 174.2750 0002034  40.7857 325.8359 15.08893280  1301,6917.718000000003,95.434,540.99,538.175,0.0
53966.0,STARLINK-4635,PAYLOAD,2022-12-04 04:00:00,15.08844279,0.0001889,53.2151,173.1519,37.7705,247.5716,-0.002126,-0.00033969,0.0,0 STARLINK-4635,1 53966U 22125C   22338.16667824 -.00033969  00000-0 -21260-2 0  9994,2 53966  53.2151 173.1519 0001889  37.7705 247.5716 15.08844279  9504,6917.8669999999975,95.437,541.039,538.4259999999998,0.0
53966.0,STARLINK-4635,PAYLOAD,2022-12-04 12:00:00,15.088197199999998,0.0001742,53.2151,171.6543,43.8698,253.0648,0.0021946,0.00034793,0.0,0 STARLINK-4635,1 53966U 22125C   22338.50001157  .00034793  00000-0  21946-2 0  9998,2 53966  53.2151 171.6543 0001742  43.8698 253.0648 15.08819720  9555,6917.941999999999,95.439,541.012,538.602,0.0
53966.0,STARLINK-4635,PAYLOAD,2022-12-04 14:00:01,15.08837023,0.0001758,53.2152,171.2807,44.2362,345.5848,7.9335e-08,-2.87e-06,0.0,0 STARLINK-4635,1 53966U 22125C   22338.58334491 -.00000287  00000-0  79335-7 0  9998,2 53966  53.2152 171.2807 0001758  44.2362 345.5848 15.08837023  1305,6917.889,95.438,540.971,538.538,0.0
53966.0,STARLINK-4635,PAYLOAD,2022-12-04 20:00:01,15.08832366,0.0001947,53.2148,170.1597,40.5232,267.9936,-0.00053618,-8.809999999999999e-05,0.0,0 STARLINK-4635,1 53966U 22125C   22338.83334491 -.00008810  00000-0 -53618-3 0  9999,2 53966  53.2148 170.1597 0001947  40.5232 267.9936 15.08832366  9600,6917.904,95.438,541.116,538.422,0.0
53966.0,STARLINK-4635,PAYLOAD,2022-12-04 22:00:00,15.08820192,0.0001964,53.2149,169.7859,39.9111,1.5067,0.0014887,0.00023471,0.0,0 STARLINK-4635,1 53966U 22125C   22338.91667824  .00023471  00000-0  14887-2 0  9999,2 53966  53.2149 169.7859 0001964  39.9111   1.5067 15.08820192  1303,6917.941,95.439,541.165,538.447,0.0
53966.0,STARLINK-4635,PAYLOAD,2022-12-05 14:00:01,15.08828171,0.0001729,53.2144,166.7915,43.7751,20.8761,-0.0010479,-0.00016921,0.0,0 STARLINK-4635,1 53966U 22125C   22339.58335648 -.00016921  00000-0 -10479-2 0  9996,2 53966  53.2144 166.7915 0001729  43.7751  20.8761 15.08828171  1300,6917.917,95.438,540.9780000000002,538.585,0.0
53966.0,STARLINK-4635,PAYLOAD,2022-12-05 20:04:29,15.08842472,0.0001942,53.217,165.65200000000004,51.0964,309.0201,-0.0002897,-4.896e-05,0.0,0 STARLINK-4635,1 53966U 22125C   22339.83645439 -.00004896  00000-0 -28970-3 0  9990,2 53966  53.2170 165.6520 0001942  51.0964 309.0201 15.08842472  9695,6917.873000000001,95.437,541.081,538.394,0.0
53966.0,STARLINK-4635,PAYLOAD,2022-12-05 23:15:15,15.08839756,0.000194,53.217,165.0598,49.3122,310.8038,-0.00024817,-4.236e-05,0.0,0 STARLINK-4635,1 53966U 22125C   22339.96893482 -.00004236  00000-0 -24817-3 0  9991,2 53966  53.2170 165.0598 0001940  49.3122 310.8038 15.08839756  9787,6917.880999999999,95.438,541.0880000000002,538.404,0.0
53966.0,STARLINK-4635,PAYLOAD,2022-12-06 13:33:44,15.08824116,0.0001916,53.2167,162.3844,40.8753,319.2382,-3.5444e-05,-8.52e-06,0.0,0 STARLINK-4635,1 53966U 22125C   22340.56509873 -.00000852  00000-0 -35444-4 0  9996,2 53966  53.2167 162.3844 0001916  40.8753 319.2382 15.08824116  9808,6917.929,95.439,541.119,538.4680000000002,0.0
53966.0,STARLINK-4635,PAYLOAD,2022-12-06 18:19:54,15.08824844,0.0001917,53.2168,161.4923,42.2428,317.8711,-3.2491e-05,-8.05e-06,0.0,0 STARLINK-4635,1 53966U 22125C   22340.76382011 -.00000805  00000-0 -32491-4 0  9998,2 53966  53.2168 161.4923 0001917  42.2428 317.8711 15.08824844  9834,6917.927,95.439,541.118,538.466,0.0
53966.0,STARLINK-4635,PAYLOAD,2022-12-07 11:49:08,15.08826375,0.0001914,53.2166,158.2209,41.3648,318.7489,-6.0171e-06,-3.84e-06,0.0,0 STARLINK-4635,1 53966U 22125C   22341.49246442 -.00000384  00000-0 -60171-5 0  9995,2 53966  53.2166 158.2209 0001914  41.3648 318.7489 15.08826375 10019,6917.922,95.438,541.111,538.4630000000002,0.0
53966.0,STARLINK-4635,PAYLOAD,2022-12-07 18:10:40,15.08835063,0.0001749,53.2175,157.033,43.5492,316.5638,0.000269,3.995e-05,0.0,0 STARLINK-4635,1 53966U 22125C   22341.75741328  .00003995  00000-0  26900-3 0  9996,2 53966  53.2175 157.0330 0001749  43.5492 316.5638 15.08835063 10058,6917.895,95.438,540.97,538.5509999999998,0.0
53966.0,STARLINK-4635,PAYLOAD,2022-12-07 22:56:51,15.08831867,0.0001652,53.2175,156.1415,52.3823,307.7318,-0.00037456,-6.243e-05,0.0,0 STARLINK-4635,1 53966U 22125C   22341.95615427 -.00006243  00000-0 -37456-3 0  9997,2 53966  53.2175 156.1415 0001652  52.3823 307.7318 15.08831867 10089,6917.905,95.438,540.913,538.627,0.0
53966.0,STARLINK-4635,PAYLOAD,2022-12-08 05:18:27,15.08763401,0.0002104,53.2176,154.9525,279.6185,80.457,-0.00053275,-8.739e-05,0.0,0 STARLINK-4635,1 53966U 22125C   22342.22114863 -.00008739  00000-0 -53275-3 0  9995,2 53966  53.2176 154.9525 0002104 279.6185  80.4570 15.08763401 10056,6918.115,95.442,541.435,538.524,0.0
53966.0,STARLINK-4635,PAYLOAD,2022-12-09 01:58:24,15.08833522,0.0001604,53.2176,151.0876,39.0606,321.0501,-0.00011786,-2.163e-05,0.0,0 STARLINK-4635,1 53966U 22125C   22343.08223007 -.00002163  00000-0 -11786-3 0  9997,2 53966  53.2176 151.0876 0001604  39.0606 321.0501 15.08833522 10255,6917.9,95.438,540.875,538.656,0.0
53966.0,STARLINK-4635,PAYLOAD,2022-12-09 11:30:40,15.08871798,0.0001848,53.2172,149.3036,37.9053,322.2069,0.00034239,5.17e-05,0.0,0 STARLINK-4635,1 53966U 22125C   22343.47963386  .00005170  00000-0  34239-3 0  9998,2 53966  53.2172 149.3036 0001848  37.9053 322.2069 15.08871798 10240,6917.783,95.436,540.927,538.37,0.0
53966.0,STARLINK-4635,PAYLOAD,2022-12-09 19:27:40,15.08812715,0.0001989,53.2172,147.8173,25.4551,334.6539,-0.00032065,-5.384e-05,0.0,0 STARLINK-4635,1 53966U 22125C   22343.81089052 -.00005384  00000-0 -32065-3 0  9999,2 53966  53.2172 147.8173 0001989  25.4551 334.6539 15.08812715 10362,6917.964,95.439,541.205,538.453,0.0
53966.0,STARLINK-4635,PAYLOAD,2022-12-10 11:21:30,15.08841146,0.0001957,53.2175,144.845,16.1833,343.9221,-0.00011195,-2.07e-05,0.0,0 STARLINK-4635,1 53966U 22125C   22344.47326823 -.00002070  00000-0 -11195-3 0  9992,2 53966  53.2175 144.8450 0001957  16.1833 343.9221 15.08841146 10467,6917.877,95.437,541.096,538.388,0.0
53966.0,STARLINK-4635,PAYLOAD,2022-12-10 17:43:02,15.088437699999998,0.0002049,53.2169,143.6509,43.5172,316.5982,4.6567e-06,-2.14e-06,0.0,0 STARLINK-4635,1 53966U 22125C   22344.73822406 -.00000214  00000-0  46567-5 0  9999,2 53966  53.2169 143.6509 0002049  43.5172 316.5982 15.08843770 10437,6917.869000000002,95.437,541.151,538.316,0.0
53966.0,STARLINK-4635,PAYLOAD,2022-12-10 22:29:11,15.08846237,0.0002072,53.2169,142.7583,43.2862,316.8293,2.8928e-05,1.72e-06,0.0,0 STARLINK-4635,1 53966U 22125C   22344.93694114  .00000172  00000-0  28928-4 0  9996,2 53966  53.2169 142.7583 0002072  43.2862 316.8293 15.08846237 10538,6917.861,95.437,541.16,538.293,0.0
53966.0,STARLINK-4635,PAYLOAD,2022-12-11 09:36:53,15.08847172,0.0002626,53.2172,140.6805,35.235,324.8816,2.5534e-05,1.18e-06,0.0,0 STARLINK-4635,1 53966U 22125C   22345.40062019  .00000118  00000-0  25534-4 0  9992,2 53966  53.2172 140.6805 0002626  35.2350 324.8816 15.08847172 10533,6917.858,95.437,541.54,537.9069999999998,0.0
53966.0,STARLINK-4635,PAYLOAD,2022-12-11 15:58:26,15.0883361,0.000195,53.217,139.4871,45.0646,315.0504,2.2494e-05,7e-07,0.0,0 STARLINK-4635,1 53966U 22125C   22345.66558674  .00000070  00000-0  22494-4 0  9996,2 53966  53.2170 139.4871 0001950  45.0646 315.0504 15.08833610 10646,6917.9,95.438,541.114,538.4159999999998,0.0
53966.0,STARLINK-4635,PAYLOAD,2022-12-11 19:09:12,15.08837105,0.0002079,53.2175,138.8909,42.2796,317.8356,4.1517e-05,3.73e-06,0.0,0 STARLINK-4635,1 53966U 22125C   22345.79806451  .00000373  00000-0  41517-4 0  9992,2 53966  53.2175 138.8909 0002079  42.2796 317.8356 15.08837105 10596,6917.889,95.438,541.192,538.316,0.0
53966.0,STARLINK-4635,PAYLOAD,2022-12-11 20:44:35,15.08837576,0.0002106,53.2178,138.5936,41.7971,318.3182,4.4481e-05,4.2e-06,0.0,0 STARLINK-4635,1 53966U 22125C   22345.86430454  .00000420  00000-0  44481-4 0  9992,2 53966  53.2178 138.5936 0002106  41.7971 318.3182 15.08837576 10603,6917.888000000001,95.438,541.21,538.2959999999998,0.0
53966.0,STARLINK-4635,PAYLOAD,2022-12-12 18:59:59,15.08837637,0.0002064,53.2177,134.4313,43.7173,316.3982,9.2342e-06,-1.41e-06,0.0,0 STARLINK-4635,1 53966U 22125C   22346.79166601 -.00000141  00000-0  92342-5 0  9996,2 53966  53.2177 134.4313 0002064  43.7173 316.3982 15.08837637 10744,6917.888000000001,95.438,541.18,538.325,0.0
53966.0,STARLINK-4635,PAYLOAD,2022-12-12 20:35:23,15.08839931,0.0002126,53.2175,134.1332,44.5732,315.5431,-1.7714e-05,-5.700000000000001e-06,0.0,0 STARLINK-4635,1 53966U 22125C   22346.85790553 -.00000570  00000-0 -17714-4 0  9998,2 53966  53.2175 134.1332 0002126  44.5732 315.5431 15.08839931 10827,6917.880999999999,95.438,541.216,538.275,0.0
53966.0,STARLINK-4635,PAYLOAD,2022-12-13 10:53:50,15.08845218,0.0001911,53.2156,131.4571,47.3925,312.7228,2.3667e-06,-2.51e-06,0.0,0 STARLINK-4635,1 53966U 22125C   22347.45405928 -.00000251  00000-0  23667-5 0  9994,2 53966  53.2156 131.4571 0001911  47.3925 312.7228 15.08845218 10847,6917.864000000001,95.437,541.0509999999998,538.4069999999998,0.0
